{
  "type": "FeatureCollection",
  "features": [
    {
      "type": "Feature",
      "properties": {
        "norad_id": 34878,
        "name": "COSMOS 2251 DEB",
        "group": "cosmos-2251-debris",
        "lat": -54.697924055004094,
        "lon": 1.1715017081650547,
        "alt_km": 946.2503322495368,
        "timestamp": "2025-12-26T17:24:55.114955+00:00",
        "meta_object_name": "COSMOS 2251 DEB",
        "meta_object_id": "1993-036ACR",
        "meta_epoch": "2025-12-26T01:44:55.738176",
        "meta_mean_motion": 13.44208348,
        "meta_eccentricity": 0.04356984,
        "meta_inclination": 73.9645,
        "meta_ra_of_asc_node": 26.1695,
        "meta_arg_of_pericenter": 7.0883,
        "meta_mean_anomaly": 21.5785,
        "meta_ephemeris_type": 0,
        "meta_classification_type": "U",
        "meta_norad_cat_id": 34878,
        "meta_element_set_no": 999,
        "meta_rev_at_epoch": 81452,
        "meta_bstar": 0.00070715801,
        "meta_mean_motion_dot": 7.05e-06,
        "meta_mean_motion_ddot": 0,
        "tle_line1": "1 34878U 93036ACR 25360.07286734  .00000705  00000+0  70716-3 0  9999",
        "tle_line2": "2 34878  73.9645  26.1695 0435698   7.0883  21.5785 13.44208348814521"
      },
      "geometry": {
        "type": "Point",
        "coordinates": [
          1.1715017081650547,
          -54.697924055004094
        ]
      }
    },
    {
      "type": "Feature",
      "properties": {
        "norad_id": 34882,
        "name": "COSMOS 2251 DEB",
        "group": "cosmos-2251-debris",
        "lat": -73.63075321829069,
        "lon": 95.74687184774507,
        "alt_km": 661.763009935562,
        "timestamp": "2025-12-26T17:24:55.114965+00:00",
        "meta_object_name": "COSMOS 2251 DEB",
        "meta_object_id": "1993-036ACV",
        "meta_epoch": "2025-12-24T14:54:49.727232",
        "meta_mean_motion": 14.61616436,
        "meta_eccentricity": 0.00833525,
        "meta_inclination": 74.0451,
        "meta_ra_of_asc_node": 202.874,
        "meta_arg_of_pericenter": 327.0403,
        "meta_mean_anomaly": 32.5581,
        "meta_ephemeris_type": 0,
        "meta_classification_type": "U",
        "meta_norad_cat_id": 34882,
        "meta_element_set_no": 999,
        "meta_rev_at_epoch": 88698,
        "meta_bstar": 0.00012189648,
        "meta_mean_motion_dot": 6.03e-06,
        "meta_mean_motion_ddot": 0,
        "tle_line1": "1 34882U 93036ACV 25358.62140888  .00000603  00000+0  12190-3 0  9990",
        "tle_line2": "2 34882  74.0451 202.8740 0083352 327.0403  32.5581 14.61616436886982"
      },
      "geometry": {
        "type": "Point",
        "coordinates": [
          95.74687184774507,
          -73.63075321829069
        ]
      }
    },
    {
      "type": "Feature",
      "properties": {
        "norad_id": 34883,
        "name": "COSMOS 2251 DEB",
        "group": "cosmos-2251-debris",
        "lat": 4.649407293186445,
        "lon": -144.67832577472944,
        "alt_km": 672.8374543268901,
        "timestamp": "2025-12-26T17:24:55.114975+00:00",
        "meta_object_name": "COSMOS 2251 DEB",
        "meta_object_id": "1993-036ACW",
        "meta_epoch": "2025-12-25T12:29:30.541632",
        "meta_mean_motion": 14.51859717,
        "meta_eccentricity": 0.0094459,
        "meta_inclination": 74.2013,
        "meta_ra_of_asc_node": 38.8875,
        "meta_arg_of_pericenter": 221.5013,
        "meta_mean_anomaly": 137.8952,
        "meta_ephemeris_type": 0,
        "meta_classification_type": "U",
        "meta_norad_cat_id": 34883,
        "meta_element_set_no": 999,
        "meta_rev_at_epoch": 86625,
        "meta_bstar": 0.0033923,
        "meta_mean_motion_dot": 0.00014484,
        "meta_mean_motion_ddot": 0,
        "tle_line1": "1 34883U 93036ACW 25359.52049238  .00014484  00000+0  33923-2 0  9996",
        "tle_line2": "2 34883  74.2013  38.8875 0094459 221.5013 137.8952 14.51859717866259"
      },
      "geometry": {
        "type": "Point",
        "coordinates": [
          -144.67832577472944,
          4.649407293186445
        ]
      }
    },
    {
      "type": "Feature",
      "properties": {
        "norad_id": 34884,
        "name": "COSMOS 2251 DEB",
        "group": "cosmos-2251-debris",
        "lat": -68.40941662389692,
        "lon": -104.88522862615046,
        "alt_km": 604.1465843869009,
        "timestamp": "2025-12-26T17:24:55.114985+00:00",
        "meta_object_name": "COSMOS 2251 DEB",
        "meta_object_id": "1993-036ACX",
        "meta_epoch": "2025-12-26T01:54:35.167680",
        "meta_mean_motion": 14.90656888,
        "meta_eccentricity": 0.0003309,
        "meta_inclination": 74.0173,
        "meta_ra_of_asc_node": 30.0032,
        "meta_arg_of_pericenter": 25.3539,
        "meta_mean_anomaly": 4.3591,
        "meta_ephemeris_type": 0,
        "meta_classification_type": "U",
        "meta_norad_cat_id": 34884,
        "meta_element_set_no": 999,
        "meta_rev_at_epoch": 88004,
        "meta_bstar": 0.0022176721,
        "meta_mean_motion_dot": 0.00021778,
        "meta_mean_motion_ddot": 0,
        "tle_line1": "1 34884U 93036ACX 25360.07957370  .00021778  00000+0  22177-2 0  9997",
        "tle_line2": "2 34884  74.0173  30.0032 0003309  25.3539   4.3591 14.90656888880048"
      },
      "geometry": {
        "type": "Point",
        "coordinates": [
          -104.88522862615046,
          -68.40941662389692
        ]
      }
    },
    {
      "type": "Feature",
      "properties": {
        "norad_id": 34885,
        "name": "COSMOS 2251 DEB",
        "group": "cosmos-2251-debris",
        "lat": -11.623045228294531,
        "lon": 153.31049065900015,
        "alt_km": 727.4464314064517,
        "timestamp": "2025-12-26T17:24:55.114994+00:00",
        "meta_object_name": "COSMOS 2251 DEB",
        "meta_object_id": "1993-036ACY",
        "meta_epoch": "2025-12-25T20:30:09.906912",
        "meta_mean_motion": 14.51573289,
        "meta_eccentricity": 0.00150484,
        "meta_inclination": 74.0301,
        "meta_ra_of_asc_node": 158.3276,
        "meta_arg_of_pericenter": 243.82,
        "meta_mean_anomaly": 232.4643,
        "meta_ephemeris_type": 0,
        "meta_classification_type": "U",
        "meta_norad_cat_id": 34885,
        "meta_element_set_no": 999,
        "meta_rev_at_epoch": 87669,
        "meta_bstar": 0.00082730584,
        "meta_mean_motion_dot": 3.29e-05,
        "meta_mean_motion_ddot": 0,
        "tle_line1": "1 34885U 93036ACY 25359.85428133  .00003290  00000+0  82731-3 0  9994",
        "tle_line2": "2 34885  74.0301 158.3276 0015048 243.8200 232.4643 14.51573289876699"
      },
      "geometry": {
        "type": "Point",
        "coordinates": [
          153.31049065900015,
          -11.623045228294531
        ]
      }
    },
    {
      "type": "Feature",
      "properties": {
        "norad_id": 34886,
        "name": "COSMOS 2251 DEB",
        "group": "cosmos-2251-debris",
        "lat": 1.3969817927969974,
        "lon": -29.768537844956228,
        "alt_km": 466.6279984769808,
        "timestamp": "2025-12-26T17:24:55.115004+00:00",
        "meta_object_name": "COSMOS 2251 DEB",
        "meta_object_id": "1993-036ACZ",
        "meta_epoch": "2025-12-26T02:36:50.580000",
        "meta_mean_motion": 15.40427097,
        "meta_eccentricity": 0.00320894,
        "meta_inclination": 73.9509,
        "meta_ra_of_asc_node": 151.9737,
        "meta_arg_of_pericenter": 333.08,
        "meta_mean_anomaly": 26.8741,
        "meta_ephemeris_type": 0,
        "meta_classification_type": "U",
        "meta_norad_cat_id": 34886,
        "meta_element_set_no": 999,
        "meta_rev_at_epoch": 63204,
        "meta_bstar": 0.0017702923,
        "meta_mean_motion_dot": 0.00073619,
        "meta_mean_motion_ddot": 0,
        "tle_line1": "1 34886U 93036ACZ 25360.10891875  .00073619  00000+0  17703-2 0  9990",
        "tle_line2": "2 34886  73.9509 151.9737 0032089 333.0800  26.8741 15.40427097632048"
      },
      "geometry": {
        "type": "Point",
        "coordinates": [
          -29.768537844956228,
          1.3969817927969974
        ]
      }
    },
    {
      "type": "Feature",
      "properties": {
        "norad_id": 34907,
        "name": "COSMOS 2251 DEB",
        "group": "cosmos-2251-debris",
        "lat": -48.05752456841809,
        "lon": -143.69761181941962,
        "alt_km": 407.1100110899579,
        "timestamp": "2025-12-26T17:24:55.115014+00:00",
        "meta_object_name": "COSMOS 2251 DEB",
        "meta_object_id": "1993-036ADC",
        "meta_epoch": "2025-12-26T00:59:09.943584",
        "meta_mean_motion": 15.54798885,
        "meta_eccentricity": 0.00149707,
        "meta_inclination": 73.9657,
        "meta_ra_of_asc_node": 19.1552,
        "meta_arg_of_pericenter": 322.4289,
        "meta_mean_anomaly": 37.5879,
        "meta_ephemeris_type": 0,
        "meta_classification_type": "U",
        "meta_norad_cat_id": 34907,
        "meta_element_set_no": 999,
        "meta_rev_at_epoch": 88179,
        "meta_bstar": 0.0076188915,
        "meta_mean_motion_dot": 0.0054544,
        "meta_mean_motion_ddot": 0,
        "tle_line1": "1 34907U 93036ADC 25360.04108731  .00545440  00000+0  76189-2 0  9998",
        "tle_line2": "2 34907  73.9657  19.1552 0014970 322.4289  37.5879 15.54798885881798"
      },
      "geometry": {
        "type": "Point",
        "coordinates": [
          -143.69761181941962,
          -48.05752456841809
        ]
      }
    }
  ]
}